ONEWEB-0427             
1 50499U 21132AG  25046.75479305  .00000073  00000+0  15335-3 0  9992
2 50499  87.9047  72.1833 0001721  87.2073 272.9256 13.18686655157506
ONEWEB-0429             
1 50500U 21132AH  25046.81803605 -.00000057  00000+0 -17705-3 0  9993
2 50500  87.9054  72.1915 0001523 101.2807 258.8496 13.18683510157483
ONEWEB-0430             
1 50501U 21132AJ  25046.80696053 -.00000124  00000+0 -34749-3 0  9992
2 50501  87.9047  72.1900 0002251  88.9121 271.2269 13.18686648157526
ONEWEB-0432             
1 50502U 21132AK  25047.14208615  .00000078  00000+0  16523-3 0  9990
2 50502  87.9049  72.1133 0001951  62.7000 297.4331 13.18691330158827
ONEWEB-0440             
1 50503U 21132AL  25046.82591215  .00000056  00000+0  10800-3 0  9994
2 50503  87.9051  72.1726 0001904 106.9977 253.1364 13.18688665157473
ONEWEB-0450             
1 50504U 21132AM  25046.81974340  .00000004  00000+0 -22566-4 0  9995
2 50504  87.9049  72.2024 0002262  95.8037 264.3353 13.18685963157508
ONEWEB-0410             
1 51622U 22012A   25046.84610144  .00000096  00000+0  21503-3 0  9996
2 51622  87.9048 102.7388 0000512  73.9909 286.1279 13.17650850149654
ONEWEB-0411             
1 51623U 22012B   25046.92115948  .00000579  00000+0  16211-2 0  9993
2 51623  87.8901 133.1772 0002333  93.3706 266.7688 13.10375526145607
